[{"OBJECT_NAME":"STARLINK-3938","OBJECT_ID":"2022-051AK","EPOCH":"2026-03-09T11:20:03.845472","MEAN_MOTION":15.08838338,"ECCENTRICITY":0.00013156,"INCLINATION":53.2168,"RA_OF_ASC_NODE":135.0964,"ARG_OF_PERICENTER":95.8337,"MEAN_ANOMALY":264.2805,"EPHEMERIS_TYPE":0,"CLASSIFICATION_TYPE":"U","NORAD_CAT_ID":52566,"ELEMENT_SET_NO":999,"REV_AT_EPOCH":21134,"BSTAR":-3.4923413e-5,"MEAN_MOTION_DOT":-8.44e-6,"MEAN_MOTION_DDOT":0},{"OBJECT_NAME":"COSMOS 2251 DEB","OBJECT_ID":"1993-036ZW","EPOCH":"2026-03-09T08:08:26.165472","MEAN_MOTION":15.02749495,"ECCENTRICITY":0.00499096,"INCLINATION":74.0135,"RA_OF_ASC_NODE":183.9715,"ARG_OF_PERICENTER":290.3808,"MEAN_ANOMALY":69.2023,"EPHEMERIS_TYPE":0,"CLASSIFICATION_TYPE":"U","NORAD_CAT_ID":34752,"ELEMENT_SET_NO":999,"REV_AT_EPOCH":91149,"BSTAR":0.001245658,"MEAN_MOTION_DOT":0.00017109,"MEAN_MOTION_DDOT":0}]
